[{"OBJECT_NAME":"SHIYAN-1 (SY-1)","OBJECT_ID":"2004-012A","EPOCH":"2026-03-09T17:40:34.066560","MEAN_MOTION":15.31043463,"ECCENTRICITY":0.00058726,"INCLINATION":97.8764,"RA_OF_ASC_NODE":140.5238,"ARG_OF_PERICENTER":23.6952,"MEAN_ANOMALY":336.4557,"EPHEMERIS_TYPE":0,"CLASSIFICATION_TYPE":"U","NORAD_CAT_ID":28220,"ELEMENT_SET_NO":999,"REV_AT_EPOCH":19586,"BSTAR":0.00054854449,"MEAN_MOTION_DOT":0.00016393,"MEAN_MOTION_DDOT":0},{"OBJECT_NAME":"STARLINK-32124","OBJECT_ID":"2024-132W","EPOCH":"2026-03-09T06:34:41.849472","MEAN_MOTION":15.30183261,"ECCENTRICITY":0.000119,"INCLINATION":53.1609,"RA_OF_ASC_NODE":54.5825,"ARG_OF_PERICENTER":101.6551,"MEAN_ANOMALY":258.4584,"EPHEMERIS_TYPE":0,"CLASSIFICATION_TYPE":"U","NORAD_CAT_ID":60298,"ELEMENT_SET_NO":999,"REV_AT_EPOCH":9149,"BSTAR":1.927397e-5,"MEAN_MOTION_DOT":2.12e-6,"MEAN_MOTION_DDOT":0}]
