SHIYAN-1 (SY-1)         
1 28220U 04012A   26068.73650539  .00016393  00000+0  54854-3 0  9991
2 28220  97.8764 140.5238 0005873  23.6952 336.4557 15.31043463195862
STARLINK-32124          
1 60298U 24132W   26068.27409548  .00000212  00000+0  19274-4 0  9999
2 60298  53.1609  54.5825 0001190 101.6551 258.4584 15.30183261 91499
